[{"OBJECT_NAME":"STARLINK-4290","OBJECT_ID":"2022-076W","EPOCH":"2026-03-09T19:11:43.136448","MEAN_MOTION":15.08829243,"ECCENTRICITY":0.00011862,"INCLINATION":53.2164,"RA_OF_ASC_NODE":93.6263,"ARG_OF_PERICENTER":83.7192,"MEAN_ANOMALY":276.3935,"EPHEMERIS_TYPE":0,"CLASSIFICATION_TYPE":"U","NORAD_CAT_ID":53006,"ELEMENT_SET_NO":999,"REV_AT_EPOCH":20286,"BSTAR":3.5950734e-5,"MEAN_MOTION_DOT":2.84e-6,"MEAN_MOTION_DDOT":0},{"OBJECT_NAME":"CZ-4B DEB","OBJECT_ID":"2006-015E","EPOCH":"2026-03-09T20:34:53.082912","MEAN_MOTION":15.19885806,"ECCENTRICITY":0.00461993,"INCLINATION":98.0565,"RA_OF_ASC_NODE":201.7753,"ARG_OF_PERICENTER":62.4887,"MEAN_ANOMALY":298.1031,"EPHEMERIS_TYPE":0,"CLASSIFICATION_TYPE":"U","NORAD_CAT_ID":29538,"ELEMENT_SET_NO":999,"REV_AT_EPOCH":5389,"BSTAR":0.0022587151,"MEAN_MOTION_DOT":0.00050103,"MEAN_MOTION_DDOT":0}]
